{
  "type": "FeatureCollection",
  "features": [
    {
      "type": "Feature",
      "properties": {
        "norad_id": 37919,
        "name": "FENGYUN 1C DEB",
        "group": "fengyun-1c-debris",
        "lat": 77.46431920278913,
        "lon": -115.72685023706009,
        "alt_km": 788.8537910610585,
        "timestamp": "2025-12-17T23:38:07.143492+00:00",
        "meta_object_name": "FENGYUN 1C DEB",
        "meta_object_id": "1999-025ENU",
        "meta_epoch": "2025-12-12T06:55:51.957984",
        "meta_mean_motion": 14.2676163,
        "meta_eccentricity": 0.00496798,
        "meta_inclination": 99.0576,
        "meta_ra_of_asc_node": 284.2227,
        "meta_arg_of_pericenter": 17.6806,
        "meta_mean_anomaly": 342.6088,
        "meta_ephemeris_type": 0,
        "meta_classification_type": "U",
        "meta_norad_cat_id": 37919,
        "meta_element_set_no": 999,
        "meta_rev_at_epoch": 64902,
        "meta_bstar": 0.00082874062,
        "meta_mean_motion_dot": 1.986e-05,
        "meta_mean_motion_ddot": 0,
        "tle_line1": "1 37919U 99025ENU 25346.28879581  .00001986  00000+0  82874-3 0  9997",
        "tle_line2": "2 37919  99.0576 284.2227 0049679  17.6806 342.6088 14.26761630649025"
      },
      "geometry": {
        "type": "Point",
        "coordinates": [
          -115.72685023706009,
          77.46431920278913
        ]
      }
    },
    {
      "type": "Feature",
      "properties": {
        "norad_id": 37921,
        "name": "FENGYUN 1C DEB",
        "group": "fengyun-1c-debris",
        "lat": 40.45337154557098,
        "lon": -139.26661953421473,
        "alt_km": 871.2566165425833,
        "timestamp": "2025-12-17T23:38:07.143502+00:00",
        "meta_object_name": "FENGYUN 1C DEB",
        "meta_object_id": "1999-025ENW",
        "meta_epoch": "2025-12-15T09:01:05.069568",
        "meta_mean_motion": 13.95156429,
        "meta_eccentricity": 0.00843191,
        "meta_inclination": 99.0218,
        "meta_ra_of_asc_node": 30.3959,
        "meta_arg_of_pericenter": 91.5684,
        "meta_mean_anomaly": 269.5138,
        "meta_ephemeris_type": 0,
        "meta_classification_type": "U",
        "meta_norad_cat_id": 37921,
        "meta_element_set_no": 999,
        "meta_rev_at_epoch": 63184,
        "meta_bstar": 6.6280037e-05,
        "meta_mean_motion_dot": 4.9e-07,
        "meta_mean_motion_ddot": 0,
        "tle_line1": "1 37921U 99025ENW 25349.37575312  .00000049  00000+0  66280-4 0  9991",
        "tle_line2": "2 37921  99.0218  30.3959 0084319  91.5684 269.5138 13.95156429631841"
      },
      "geometry": {
        "type": "Point",
        "coordinates": [
          -139.26661953421473,
          40.45337154557098
        ]
      }
    },
    {
      "type": "Feature",
      "properties": {
        "norad_id": 37925,
        "name": "FENGYUN 1C DEB",
        "group": "fengyun-1c-debris",
        "lat": 75.44843656622425,
        "lon": -176.23617772901974,
        "alt_km": 635.3081202706862,
        "timestamp": "2025-12-17T23:38:07.143512+00:00",
        "meta_object_name": "FENGYUN 1C DEB",
        "meta_object_id": "1999-025EPA",
        "meta_epoch": "2025-12-14T09:18:34.175520",
        "meta_mean_motion": 14.80339086,
        "meta_eccentricity": 0.00565241,
        "meta_inclination": 99.0864,
        "meta_ra_of_asc_node": 217.7592,
        "meta_arg_of_pericenter": 337.9668,
        "meta_mean_anomaly": 21.9111,
        "meta_ephemeris_type": 0,
        "meta_classification_type": "U",
        "meta_norad_cat_id": 37925,
        "meta_element_set_no": 999,
        "meta_rev_at_epoch": 65707,
        "meta_bstar": 0.001911367,
        "meta_mean_motion_dot": 0.00014939,
        "meta_mean_motion_ddot": 0,
        "tle_line1": "1 37925U 99025EPA 25348.38789555  .00014939  00000+0  19114-2 0  9996",
        "tle_line2": "2 37925  99.0864 217.7592 0056524 337.9668  21.9111 14.80339086657073"
      },
      "geometry": {
        "type": "Point",
        "coordinates": [
          -176.23617772901974,
          75.44843656622425
        ]
      }
    },
    {
      "type": "Feature",
      "properties": {
        "norad_id": 37926,
        "name": "FENGYUN 1C DEB",
        "group": "fengyun-1c-debris",
        "lat": -51.948611507631355,
        "lon": 66.43104615231113,
        "alt_km": 825.1284868877665,
        "timestamp": "2025-12-17T23:38:07.143523+00:00",
        "meta_object_name": "FENGYUN 1C DEB",
        "meta_object_id": "1999-025EPB",
        "meta_epoch": "2025-12-17T03:56:46.892832",
        "meta_mean_motion": 14.24250242,
        "meta_eccentricity": 0.00543632,
        "meta_inclination": 98.7244,
        "meta_ra_of_asc_node": 54.3031,
        "meta_arg_of_pericenter": 208.7,
        "meta_mean_anomaly": 214.0212,
        "meta_ephemeris_type": 0,
        "meta_classification_type": "U",
        "meta_norad_cat_id": 37926,
        "meta_element_set_no": 999,
        "meta_rev_at_epoch": 74333,
        "meta_bstar": 0.0011962939,
        "meta_mean_motion_dot": 2.759e-05,
        "meta_mean_motion_ddot": 0,
        "tle_line1": "1 37926U 99025EPB 25351.16443163  .00002759  00000+0  11963-2 0  9990",
        "tle_line2": "2 37926  98.7244  54.3031 0054363 208.7000 214.0212 14.24250242743335"
      },
      "geometry": {
        "type": "Point",
        "coordinates": [
          66.43104615231113,
          -51.948611507631355
        ]
      }
    },
    {
      "type": "Feature",
      "properties": {
        "norad_id": 37927,
        "name": "FENGYUN 1C DEB",
        "group": "fengyun-1c-debris",
        "lat": 80.94878922620615,
        "lon": 32.80284567639785,
        "alt_km": 652.9847453594157,
        "timestamp": "2025-12-17T23:38:07.143533+00:00",
        "meta_object_name": "FENGYUN 1C DEB",
        "meta_object_id": "1999-025EPC",
        "meta_epoch": "2025-12-17T05:16:20.802144",
        "meta_mean_motion": 14.71959072,
        "meta_eccentricity": 0.0008325,
        "meta_inclination": 98.8067,
        "meta_ra_of_asc_node": 135.2699,
        "meta_arg_of_pericenter": 262.0279,
        "meta_mean_anomaly": 97.9981,
        "meta_ephemeris_type": 0,
        "meta_classification_type": "U",
        "meta_norad_cat_id": 37927,
        "meta_element_set_no": 999,
        "meta_rev_at_epoch": 65182,
        "meta_bstar": 0.0033385946,
        "meta_mean_motion_dot": 0.00020951,
        "meta_mean_motion_ddot": 0,
        "tle_line1": "1 37927U 99025EPC 25351.21968521  .00020951  00000+0  33386-2 0  9994",
        "tle_line2": "2 37927  98.8067 135.2699 0008325 262.0279  97.9981 14.71959072651829"
      },
      "geometry": {
        "type": "Point",
        "coordinates": [
          32.80284567639785,
          80.94878922620615
        ]
      }
    },
    {
      "type": "Feature",
      "properties": {
        "norad_id": 37928,
        "name": "FENGYUN 1C DEB",
        "group": "fengyun-1c-debris",
        "lat": 79.11442882248336,
        "lon": 101.48598543145232,
        "alt_km": 749.8638107725337,
        "timestamp": "2025-12-17T23:38:07.143544+00:00",
        "meta_object_name": "FENGYUN 1C DEB",
        "meta_object_id": "1999-025EPD",
        "meta_epoch": "2025-12-15T09:22:08.363712",
        "meta_mean_motion": 14.37112428,
        "meta_eccentricity": 0.00730461,
        "meta_inclination": 98.9158,
        "meta_ra_of_asc_node": 224.0834,
        "meta_arg_of_pericenter": 25.3937,
        "meta_mean_anomaly": 335.0809,
        "meta_ephemeris_type": 0,
        "meta_classification_type": "U",
        "meta_norad_cat_id": 37928,
        "meta_element_set_no": 999,
        "meta_rev_at_epoch": 81230,
        "meta_bstar": 0.00052318414,
        "meta_mean_motion_dot": 1.555e-05,
        "meta_mean_motion_ddot": 0,
        "tle_line1": "1 37928U 99025EPD 25349.39037458  .00001555  00000+0  52318-3 0  9993",
        "tle_line2": "2 37928  98.9158 224.0834 0073046  25.3937 335.0809 14.37112428812308"
      },
      "geometry": {
        "type": "Point",
        "coordinates": [
          101.48598543145232,
          79.11442882248336
        ]
      }
    },
    {
      "type": "Feature",
      "properties": {
        "norad_id": 38116,
        "name": "FENGYUN 1C DEB",
        "group": "fengyun-1c-debris",
        "lat": 79.5495502603002,
        "lon": -93.14543292025778,
        "alt_km": 785.5486187760735,
        "timestamp": "2025-12-17T23:38:07.143554+00:00",
        "meta_object_name": "FENGYUN 1C DEB",
        "meta_object_id": "1999-025EPM",
        "meta_epoch": "2025-12-13T09:07:05.482848",
        "meta_mean_motion": 14.17018726,
        "meta_eccentricity": 0.00724721,
        "meta_inclination": 98.7128,
        "meta_ra_of_asc_node": 26.1003,
        "meta_arg_of_pericenter": 144.8988,
        "meta_mean_anomaly": 233.7196,
        "meta_ephemeris_type": 0,
        "meta_classification_type": "U",
        "meta_norad_cat_id": 38116,
        "meta_element_set_no": 999,
        "meta_rev_at_epoch": 64494,
        "meta_bstar": 0.00072544359,
        "meta_mean_motion_dot": 1.454e-05,
        "meta_mean_motion_ddot": 0,
        "tle_line1": "1 38116U 99025EPM 25347.37992457  .00001454  00000+0  72544-3 0  9999",
        "tle_line2": "2 38116  98.7128  26.1003 0072472 144.8988 233.7196 14.17018726644947"
      },
      "geometry": {
        "type": "Point",
        "coordinates": [
          -93.14543292025778,
          79.5495502603002
        ]
      }
    }
  ]
}